GPS BIIR-2  (PRN 13)    
1 24876U 97035A   16038.97515474  .00000073  00000-0  00000+0 0  9990
2 24876  55.7034 246.6279 0044549 114.9777 245.5414  2.00562399135898
GPS BIIR-3  (PRN 11)    
1 25933U 99055A   16039.59678598 -.00000003  00000-0  00000+0 0  9999
2 25933  51.3119  99.3590 0159900  85.9537 287.7429  2.00565284119721
GPS BIIR-4  (PRN 20)    
1 26360U 00025A   16039.51564086  .00000020  00000-0  00000+0 0  9999
2 26360  53.0720 175.5203 0046916  75.5164 343.1013  2.00560601115410
GPS BIIR-5  (PRN 28)    
1 26407U 00040A   16039.35905543 -.00000055  00000-0  00000+0 0  9996
2 26407  56.6985   4.4288 0201999 266.8653 315.3409  2.00569765114081
GPS BIIR-6  (PRN 14)    
1 26605U 00071A   16039.31737245  .00000070  00000-0  00000+0 0  9994
2 26605  55.2730 244.5326 0085177 248.8265 238.1233  2.00557883111689
GPS BIIR-7  (PRN 18)    
1 26690U 01004A   16039.48701785  .00000023  00000-0  00000+0 0  9991
2 26690  53.0008 178.4994 0168382 250.5663  93.7093  2.00564331110094
GPS BIIR-8  (PRN 16)    
1 27663U 03005A   16039.21689078 -.00000055  00000-0  00000+0 0  9992
2 27663  56.7743   4.1436 0084569  17.0612 226.7021  2.00560568 95449
GPS BIIR-9  (PRN 21)    
1 27704U 03010A   16039.49423735  .00000001  00000-0  00000+0 0  9990
2 27704  53.6055 118.7785 0233157 255.2003 149.1932  2.00563129 94258
GPS BIIR-10 (PRN 22)    
1 28129U 03058A   16039.10732130  .00000022  00000-0  00000+0 0  9997
2 28129  52.8777 178.5597 0078347 244.7437 114.3987  2.00397173 88957
GPS BIIR-11 (PRN 19)    
1 28190U 04009A   16039.37633804  .00000000  00000-0  00000+0 0  9995
2 28190  55.7107  65.5564 0111095  37.8364 118.4920  2.00386218 87129
GPS BIIR-12 (PRN 23)    
1 28361U 04023A   16039.31758913  .00000068  00000-0  00000+0 0  9998
2 28361  54.2407 240.1511 0105821 211.2833 168.5551  2.00556570 85212
GPS BIIR-13 (PRN 02)    
1 28474U 04045A   16039.37614207  .00000001  00000-0  00000+0 0  9997
2 28474  53.9972 118.0521 0155821 236.1424 189.3529  2.00557971 82579
GPS BIIRM-1 (PRN 17)    
1 28874U 05038A   16039.36899612 -.00000001  00000-0  00000+0 0  9999
2 28874  55.8783  62.7470 0111802 248.4756 279.2633  2.00568177 75978
GPS BIIRM-2 (PRN 31)    
1 29486U 06042A   16039.36424279 -.00000010  00000-0  00000+0 0  9998
2 29486  55.7171 302.0508 0084367 333.5190 112.2126  2.00561785 68695
GPS BIIRM-3 (PRN 12)    
1 29601U 06052A   16039.18645901 -.00000055  00000-0  00000+0 0  9994
2 29601  56.7445   3.0702 0056853  36.3557 324.0224  2.00550793 67606
GPS BIIRM-4 (PRN 15)    
1 32260U 07047A   16039.01369758  .00000069  00000-0  00000+0 0  9993
2 32260  53.3705 236.9478 0079479  26.0286 334.4049  2.00548848 60986
GPS BIIRM-5 (PRN 29)    
1 32384U 07062A   16039.45272487 -.00000001  00000-0  00000+0 0  9994
2 32384  55.9316  63.2945 0011744 317.8603 136.8991  2.00570271 59729
GPS BIIRM-6 (PRN 07)    
1 32711U 08012A   16039.41986726 -.00000010  00000-0  00000+0 0  9998
2 32711  55.4395 301.5406 0091490 207.7607 151.8130  2.00563495 57913
GPS BIIRM-7 (PRN 04)    
1 34661U 09014A   16039.14679919 -.00000057  00000-0  00000+0 0  9991
2 34661  56.3479   1.4406 0079171  47.8656 180.8292  2.00573078 50436
GPS BIIRM-8 (PRN 05)    
1 35752U 09043A   16039.37548817  .00000025  00000-0  00000+0 0  9996
2 35752  54.2255 179.5765 0044788  25.2247 332.1176  2.00556767 47484
GPS BIIF-1  (PRN 25)    
1 36585U 10022A   16039.55196713 -.00000058  00000-0  00000+0 0  9991
2 36585  56.0747   0.2131 0049672  37.8280 194.7270  2.00577172 41737
GPS BIIF-2  (PRN 01)    
1 37753U 11036A   16039.54689223  .00000004  00000-0  00000+0 0  9997
2 37753  55.2160 120.5179 0049251  24.4570 287.6335  2.00565787 33420
GPS BIIF-3  (PRN 24)    
1 38833U 12053A   16039.10348372 -.00000007  00000-0  00000+0 0  9990
2 38833  54.4719 298.9589 0041505  17.5686 342.6407  2.00567875 24490
GPS BIIF-4  (PRN 27)    
1 39166U 13023A   16038.96274437 -.00000003  00000-0  00000+0 0  9997
2 39166  55.5882  59.9402 0031266   7.5490 352.5623  2.00568497 20012
GPS BIIF-5  (PRN 30)    
1 39533U 14008A   16038.96135735 -.00000016  00000-0  00000+0 0  9990
2 39533  54.6255 304.1777 0016690 181.5892 178.4646  2.00567284 14383
GPS BIIF-6  (PRN 06)    
1 39741U 14026A   16039.23765912  .00000002  00000-0  00000+0 0  9992
2 39741  55.2072 120.0461 0005046 252.5512 107.4414  2.00568283 12668
GPS BIIF-7  (PRN 09)    
1 40105U 14045A   16039.33187204  .00000070  00000-0  00000+0 0  9997
2 40105  54.7586 239.7925 0004275 119.2825 240.8005  2.00567075 11115
GPS BIIF-8  (PRN 03)    
1 40294U 14068A   16039.19898718  .00000027  00000-0  00000+0 0  9996
2 40294  54.9639 180.1817 0003519 213.9674 145.9661  2.00551958  9335
GPS BIIF-9  (PRN 26)    
1 40534U 15013A   16038.84072077 -.00000060  00000-0  00000+0 0  9995
2 40534  55.0445 359.8373 0008780 337.0016  22.9546  2.00559845  6396
GPS BIIF-10  (PRN 08)   
1 40730U 15033A   16038.99964209 -.00000005  00000-0  00000+0 0  9997
2 40730  55.1249  59.8341 0020181 278.7118  81.1228  2.00567058  4153
GPS BIIF-11  (PRN 10)   
1 41019U 15062A   16038.55383606  .00000026  00000-0  00000+0 0  9990
2 41019  54.9787 179.9718 0011488 203.4967 156.4083  2.00561994  1961
